[{"OBJECT_NAME":"YAOGAN-20 01C","OBJECT_ID":"2014-047C","EPOCH":"2026-03-09T23:32:29.762592","MEAN_MOTION":13.45441418,"ECCENTRICITY":0.03814224,"INCLINATION":63.3778,"RA_OF_ASC_NODE":275.4828,"ARG_OF_PERICENTER":14.5547,"MEAN_ANOMALY":346.6105,"EPHEMERIS_TYPE":0,"CLASSIFICATION_TYPE":"U","NORAD_CAT_ID":40111,"ELEMENT_SET_NO":999,"REV_AT_EPOCH":56894,"BSTAR":8.7194712e-5,"MEAN_MOTION_DOT":-1.1e-7,"MEAN_MOTION_DDOT":0},{"OBJECT_NAME":"ONEWEB-0557","OBJECT_ID":"2023-043N","EPOCH":"2026-03-09T23:16:03.055584","MEAN_MOTION":13.16593655,"ECCENTRICITY":5.894e-5,"INCLINATION":87.9005,"RA_OF_ASC_NODE":248.5151,"ARG_OF_PERICENTER":48.9089,"MEAN_ANOMALY":311.2093,"EPHEMERIS_TYPE":0,"CLASSIFICATION_TYPE":"U","NORAD_CAT_ID":56058,"ELEMENT_SET_NO":999,"REV_AT_EPOCH":14590,"BSTAR":1.14451e-5,"MEAN_MOTION_DOT":1.7e-7,"MEAN_MOTION_DDOT":0}]
